{
  "type": "FeatureCollection",
  "features": [
    {
      "type": "Feature",
      "properties": {
        "norad_id": 66052,
        "name": "HRC MONOBLOCK CAMERA",
        "group": "stations",
        "lat": 40.58719652355647,
        "lon": -155.7967979069218,
        "alt_km": 401.3438129330816,
        "timestamp": "2025-12-08T17:43:03.650739+00:00",
        "meta_object_name": "HRC MONOBLOCK CAMERA",
        "meta_object_id": "1998-067XR",
        "meta_epoch": "2025-12-08T05:07:40.067616",
        "meta_mean_motion": 15.53683472,
        "meta_eccentricity": 0.00039412,
        "meta_inclination": 51.6285,
        "meta_ra_of_asc_node": 164.067,
        "meta_arg_of_pericenter": 165.5162,
        "meta_mean_anomaly": 194.5942,
        "meta_ephemeris_type": 0,
        "meta_classification_type": "U",
        "meta_norad_cat_id": 66052,
        "meta_element_set_no": 999,
        "meta_rev_at_epoch": 813,
        "meta_bstar": 0.00058766286,
        "meta_mean_motion_dot": 0.0003799,
        "meta_mean_motion_ddot": 0,
        "tle_line1": "1 66052U 98067XR  25342.21365819  .00037990  00000+0  58766-3 0  9992",
        "tle_line2": "2 66052  51.6285 164.0670 0003941 165.5162 194.5942 15.53683472  8135"
      },
      "geometry": {
        "type": "Point",
        "coordinates": [
          -155.7967979069218,
          40.58719652355647
        ]
      }
    },
    {
      "type": "Feature",
      "properties": {
        "norad_id": 66174,
        "name": "HTV-X1",
        "group": "stations",
        "lat": 10.257096315533067,
        "lon": 170.5338316946105,
        "alt_km": 419.7703406980545,
        "timestamp": "2025-12-08T17:43:03.650749+00:00",
        "meta_object_name": "HTV-X1",
        "meta_object_id": "2025-241A",
        "meta_epoch": "2025-12-08T05:16:39.559584",
        "meta_mean_motion": 15.49412336,
        "meta_eccentricity": 0.00034318,
        "meta_inclination": 51.6305,
        "meta_ra_of_asc_node": 164.8582,
        "meta_arg_of_pericenter": 219.3069,
        "meta_mean_anomaly": 140.7671,
        "meta_ephemeris_type": 0,
        "meta_classification_type": "U",
        "meta_norad_cat_id": 66174,
        "meta_element_set_no": 999,
        "meta_rev_at_epoch": 51,
        "meta_bstar": 0.00022082399,
        "meta_mean_motion_dot": 0.00011911,
        "meta_mean_motion_ddot": 0,
        "tle_line1": "1 66174U 25241A   25342.21990231  .00011911  00000+0  22082-3 0  9990",
        "tle_line2": "2 66174  51.6305 164.8582 0003431 219.3069 140.7671 15.49412336   511"
      },
      "geometry": {
        "type": "Point",
        "coordinates": [
          170.5338316946105,
          10.257096315533067
        ]
      }
    },
    {
      "type": "Feature",
      "properties": {
        "norad_id": 66515,
        "name": "SZ-21 MODULE",
        "group": "stations",
        "lat": -9.151517596913582,
        "lon": -129.0423703601692,
        "alt_km": 379.07466456883776,
        "timestamp": "2025-12-08T17:43:03.650760+00:00",
        "meta_object_name": "SZ-21 MODULE",
        "meta_object_id": "2025-246C",
        "meta_epoch": "2025-12-08T04:37:01.238016",
        "meta_mean_motion": 15.62158409,
        "meta_eccentricity": 0.00062352,
        "meta_inclination": 41.4776,
        "meta_ra_of_asc_node": 43.7798,
        "meta_arg_of_pericenter": 235.1653,
        "meta_mean_anomaly": 124.8601,
        "meta_ephemeris_type": 0,
        "meta_classification_type": "U",
        "meta_norad_cat_id": 66515,
        "meta_element_set_no": 999,
        "meta_rev_at_epoch": 373,
        "meta_bstar": 0.00034735196,
        "meta_mean_motion_dot": 0.00031205,
        "meta_mean_motion_ddot": 0,
        "tle_line1": "1 66515U 25246C   25342.19237544  .00031205  00000+0  34735-3 0  9998",
        "tle_line2": "2 66515  41.4776  43.7798 0006235 235.1653 124.8601 15.62158409  3739"
      },
      "geometry": {
        "type": "Point",
        "coordinates": [
          -129.0423703601692,
          -9.151517596913582
        ]
      }
    },
    {
      "type": "Feature",
      "properties": {
        "norad_id": 66645,
        "name": "SHENZHOU-22",
        "group": "stations",
        "lat": -17.5308750617283,
        "lon": 20.03597408106984,
        "alt_km": 386.77846688677346,
        "timestamp": "2025-12-08T17:43:03.650771+00:00",
        "meta_object_name": "SHENZHOU-22",
        "meta_object_id": "2025-272A",
        "meta_epoch": "2025-12-08T07:04:12.884448",
        "meta_mean_motion": 15.58883062,
        "meta_eccentricity": 0.00091533,
        "meta_inclination": 41.4681,
        "meta_ra_of_asc_node": 43.6887,
        "meta_arg_of_pericenter": 354.9466,
        "meta_mean_anomaly": 5.1278,
        "meta_ephemeris_type": 0,
        "meta_classification_type": "U",
        "meta_norad_cat_id": 66645,
        "meta_element_set_no": 999,
        "meta_rev_at_epoch": 26300,
        "meta_bstar": 0.000309658,
        "meta_mean_motion_dot": 0.00024468,
        "meta_mean_motion_ddot": 0,
        "tle_line1": "1 66645U 25272A   25342.29459357  .00024468  00000+0  30966-3 0  9995",
        "tle_line2": "2 66645  41.4681  43.6887 0009153 354.9466   5.1278 15.58883062263004"
      },
      "geometry": {
        "type": "Point",
        "coordinates": [
          20.03597408106984,
          -17.5308750617283
        ]
      }
    },
    {
      "type": "Feature",
      "properties": {
        "norad_id": 66664,
        "name": "SOYUZ-MS 28",
        "group": "stations",
        "lat": 10.257098420088369,
        "lon": 170.5338334321976,
        "alt_km": 419.7703404379363,
        "timestamp": "2025-12-08T17:43:03.650791+00:00",
        "meta_object_name": "SOYUZ-MS 28",
        "meta_object_id": "2025-275A",
        "meta_epoch": "2025-12-08T05:16:39.559584",
        "meta_mean_motion": 15.49412336,
        "meta_eccentricity": 0.00034318,
        "meta_inclination": 51.6305,
        "meta_ra_of_asc_node": 164.8582,
        "meta_arg_of_pericenter": 219.3069,
        "meta_mean_anomaly": 140.7671,
        "meta_ephemeris_type": 0,
        "meta_classification_type": "U",
        "meta_norad_cat_id": 66664,
        "meta_element_set_no": 999,
        "meta_rev_at_epoch": 128,
        "meta_bstar": 0.00022082399,
        "meta_mean_motion_dot": 0.00011911,
        "meta_mean_motion_ddot": 0,
        "tle_line1": "1 66664U 25275A   25342.21990231  .00011911  00000+0  22082-3 0  9991",
        "tle_line2": "2 66664  51.6305 164.8582 0003431 219.3069 140.7671 15.49412336  1280"
      },
      "geometry": {
        "type": "Point",
        "coordinates": [
          170.5338334321976,
          10.257098420088369
        ]
      }
    },
    {
      "type": "Feature",
      "properties": {
        "norad_id": 66906,
        "name": "1998-067XS",
        "group": "stations",
        "lat": 22.558435596306957,
        "lon": -178.52727419935553,
        "alt_km": 415.8630517638785,
        "timestamp": "2025-12-08T17:43:03.650804+00:00",
        "meta_object_name": "1998-067XS",
        "meta_object_id": "1998-067XS",
        "meta_epoch": "2025-12-07T18:23:05.277120",
        "meta_mean_motion": 15.50202047,
        "meta_eccentricity": 0.00041027,
        "meta_inclination": 51.6298,
        "meta_ra_of_asc_node": 167.0779,
        "meta_arg_of_pericenter": 180.8323,
        "meta_mean_anomaly": 179.266,
        "meta_ephemeris_type": 0,
        "meta_classification_type": "U",
        "meta_norad_cat_id": 66906,
        "meta_element_set_no": 999,
        "meta_rev_at_epoch": 84,
        "meta_bstar": 0.00058960248,
        "meta_mean_motion_dot": 0.00033584,
        "meta_mean_motion_ddot": 0,
        "tle_line1": "1 66906U 98067XS  25341.76603330  .00033584  00000+0  58960-3 0  9993",
        "tle_line2": "2 66906  51.6298 167.0779 0004102 180.8323 179.2660 15.50202047   848"
      },
      "geometry": {
        "type": "Point",
        "coordinates": [
          -178.52727419935553,
          22.558435596306957
        ]
      }
    },
    {
      "type": "Feature",
      "properties": {
        "norad_id": 66907,
        "name": "1998-067XT",
        "group": "stations",
        "lat": 26.537788394763826,
        "lon": -174.44484853292326,
        "alt_km": 414.6002275282044,
        "timestamp": "2025-12-08T17:43:03.650816+00:00",
        "meta_object_name": "1998-067XT",
        "meta_object_id": "1998-067XT",
        "meta_epoch": "2025-12-08T05:11:42.536256",
        "meta_mean_motion": 15.50682978,
        "meta_eccentricity": 0.00049888,
        "meta_inclination": 51.63,
        "meta_ra_of_asc_node": 164.8361,
        "meta_arg_of_pericenter": 200.9093,
        "meta_mean_anomaly": 159.1692,
        "meta_ephemeris_type": 0,
        "meta_classification_type": "U",
        "meta_norad_cat_id": 66907,
        "meta_element_set_no": 999,
        "meta_rev_at_epoch": 91,
        "meta_bstar": 0.0010938546,
        "meta_mean_motion_dot": 0.00064041,
        "meta_mean_motion_ddot": 0,
        "tle_line1": "1 66907U 98067XT  25342.21646454  .00064041  00000+0  10939-2 0  9994",
        "tle_line2": "2 66907  51.6300 164.8361 0004988 200.9093 159.1692 15.50682978   910"
      },
      "geometry": {
        "type": "Point",
        "coordinates": [
          -174.44484853292326,
          26.537788394763826
        ]
      }
    }
  ]
}